NORAD_CAT_ID,OBJECT_NAME,OBJECT_TYPE,EPOCH,MEAN_MOTION,ECCENTRICITY,INCLINATION,RA_OF_ASC_NODE,ARG_OF_PERICENTER,MEAN_ANOMALY,BSTAR,MEAN_MOTION_DOT,MEAN_MOTION_DDOT,TLE_LINE0,TLE_LINE1,TLE_LINE2,SEMIMAJOR_AXIS,PERIOD,APOGEE,PERIGEE,DECAYED
52997.0,STARLINK-4301,PAYLOAD,2022-11-18 17:19:12,15.08837015,0.0002407,53.2159,112.4024,42.74800000000001,317.3699,2.909e-05,1.75e-06,0.0,0 STARLINK-4301,1 52997U 22076M   22322.72167747  .00000175  00000-0  29090-4 0  9998,2 52997  53.2159 112.4024 0002407  42.7480 317.3699 15.08837015 20638,6917.89,95.438,541.42,538.089,0.0
52997.0,STARLINK-4301,PAYLOAD,2022-11-19 02:51:31,15.08839895,0.0002413,53.2159,110.6185,41.7934,318.3242,6.9161e-05,8.13e-06,0.0,0 STARLINK-4301,1 52997U 22076M   22323.11911547  .00000813  00000-0  69161-4 0  9999,2 52997  53.2159 110.6185 0002413  41.7934 318.3242 15.08839895 20695,6917.880999999999,95.438,541.415,538.076,0.0
52997.0,STARLINK-4301,PAYLOAD,2022-11-19 20:20:45,15.08842953,0.0002394,53.2161,107.3473,43.0482,317.0697,0.0001638,2.32e-05,0.0,0 STARLINK-4301,1 52997U 22076M   22323.84774967  .00002320  00000-0  16380-3 0  9991,2 52997  53.2161 107.3473 0002394  43.0482 317.0697 15.08842953 20804,6917.871,95.437,541.393,538.08,0.0
52997.0,STARLINK-4301,PAYLOAD,2022-11-20 02:42:18,15.08833929,0.0002369,53.2159,106.1575,43.2171,316.9007,6.2765e-05,7.11e-06,0.0,0 STARLINK-4301,1 52997U 22076M   22324.11271865  .00000711  00000-0  62765-4 0  9992,2 52997  53.2159 106.1575 0002369  43.2171 316.9007 15.08833929 21313,6917.899,95.438,541.403,538.125,0.0
52997.0,STARLINK-4301,PAYLOAD,2022-11-20 18:36:10,15.08840566,0.0002388,53.2158,103.1829,42.6528,317.4649,3.466e-05,2.63e-06,0.0,0 STARLINK-4301,1 52997U 22076M   22324.77511607  .00000263  00000-0  34660-4 0  9990,2 52997  53.2158 103.1829 0002388  42.6528 317.4649 15.08840566 20942,6917.879,95.438,541.396,538.092,0.0
52997.0,STARLINK-4301,PAYLOAD,2022-11-21 02:33:05,15.08837615,0.0002409,53.2159,101.696,42.9585,317.1595,-5.4736e-06,-3.76e-06,0.0,0 STARLINK-4301,1 52997U 22076M   22325.10631903 -.00000376  00000-0 -54736-5 0  9994,2 52997  53.2159 101.6960 0002409  42.9585 317.1595 15.08837615 20995,6917.888000000001,95.438,541.419,538.086,0.0
52997.0,STARLINK-4301,PAYLOAD,2022-11-21 18:26:57,15.08830702,0.0002679,53.2183,98.7213,47.2108,312.9109,-4.3444e-05,-9.8e-06,0.0,0 STARLINK-4301,1 52997U 22076M   22325.76872660 -.00000980  00000-0 -43444-4 0  9997,2 52997  53.2183  98.7213 0002679  47.2108 312.9109 15.08830702 21565,6917.909000000002,95.438,541.627,537.9209999999998,0.0
52997.0,STARLINK-4301,PAYLOAD,2022-11-21 21:37:44,15.08833604,0.0002541,53.218,98.127,45.4049,314.715,-5.0004e-05,-1.084e-05,0.0,0 STARLINK-4301,1 52997U 22076M   22325.90120515 -.00001084  00000-0 -50004-4 0  9994,2 52997  53.2180  98.1270 0002541  45.4049 314.7150 15.08833604 21112,6917.9,95.438,541.523,538.007,0.0
52997.0,STARLINK-4301,PAYLOAD,2022-11-22 15:06:58,15.08838952,0.0002391,53.2166,94.8571,45.0221,315.0965,5.9109e-05,6.52e-06,0.0,0 STARLINK-4301,1 52997U 22076M   22326.62983897  .00000652  00000-0  59109-4 0  9997,2 52997  53.2166  94.8571 0002391  45.0221 315.0965 15.08838952 21696,6917.884,95.438,541.403,538.095,0.0
52997.0,STARLINK-4301,PAYLOAD,2022-11-22 19:53:07,15.08842478,0.0002364,53.2167,93.9647,45.88800000000001,314.2306,4.8555e-05,4.85e-06,0.0,0 STARLINK-4301,1 52997U 22076M   22326.82855672  .00000485  00000-0  48555-4 0  9995,2 52997  53.2167  93.9647 0002364  45.8880 314.2306 15.08842478 21250,6917.873000000001,95.437,541.373,538.102,0.0
52997.0,STARLINK-4301,PAYLOAD,2022-11-23 19:43:59,15.08784289,0.0004399,53.2164,89.5061,46.2765,313.8591,-0.00035293,-5.894e-05,0.0,0 STARLINK-4301,1 52997U 22076M   22327.82221761 -.00005894  00000-0 -35293-3 0  9997,2 52997  53.2164  89.5061 0004399  46.2765 313.8591 15.08784289 21879,6918.051,95.441,542.9590000000002,536.872,0.0
52997.0,STARLINK-4301,PAYLOAD,2022-11-24 10:02:24,15.08828135,0.0001953,53.2167,86.8276,50.2245,309.8919,-3.1413e-05,-7.88e-06,0.0,0 STARLINK-4301,1 52997U 22076M   22328.41834039 -.00000788  00000-0 -31413-4 0  9999,2 52997  53.2167  86.8276 0001953  50.2245 309.8919 15.08828135 21497,6917.917,95.438,541.133,538.431,0.0
52997.0,STARLINK-4301,PAYLOAD,2022-11-24 13:13:10,15.08833835,0.0002175,53.2164,86.2343,46.3552,313.762,-3.2603e-05,-8.07e-06,0.0,0 STARLINK-4301,1 52997U 22076M   22328.55081849 -.00000807  00000-0 -32603-4 0  9991,2 52997  53.2164  86.2343 0002175  46.3552 313.7620 15.08833835 21987,6917.899,95.438,541.269,538.26,0.0
52997.0,STARLINK-4301,PAYLOAD,2022-11-24 17:59:20,15.0883589,0.0002273,53.2172,85.3431,47.083,313.0353,-1.5945e-06,-3.14e-06,0.0,0 STARLINK-4301,1 52997U 22076M   22328.74953805 -.00000314  00000-0 -15945-5 0  9996,2 52997  53.2172  85.3431 0002273  47.0830 313.0353 15.08835890 21541,6917.893,95.438,541.33,538.186,0.0
52997.0,STARLINK-4301,PAYLOAD,2022-11-25 11:28:34,15.08808273,0.0002154,53.2167,82.0714,44.1751,315.9413,0.00052509,8.071e-05,0.0,0 STARLINK-4301,1 52997U 22076M   22329.47817132  .00008071  00000-0  52509-3 0  9990,2 52997  53.2167  82.0714 0002154  44.1751 315.9413 15.08808273 21656,6917.977,95.44,541.332,538.352,0.0
52997.0,STARLINK-4301,PAYLOAD,2022-11-25 16:14:43,15.08824748,0.0002199,53.2166,81.1795,48.0525,312.0654,0.00044884,6.859e-05,0.0,0 STARLINK-4301,1 52997U 22076M   22329.67688942  .00006859  00000-0  44884-3 0  9996,2 52997  53.2166  81.1795 0002199  48.0525 312.0654 15.08824748 22151,6917.927,95.439,541.313,538.271,0.0
52997.0,STARLINK-4301,PAYLOAD,2022-11-26 11:19:20,15.0885236,0.0002045,53.2175,77.6116,48.5042,311.6125,0.00015136,2.122e-05,0.0,0 STARLINK-4301,1 52997U 22076M   22330.47176140  .00002122  00000-0  15136-3 0  9995,2 52997  53.2175  77.6116 0002045  48.5042 311.6125 15.08852360 21807,6917.843000000003,95.437,541.122,538.293,0.0
52997.0,STARLINK-4301,PAYLOAD,2022-11-26 16:05:29,15.08853141,0.000204,53.2175,76.7194,47.9509,312.1656,0.00014924,2.089e-05,0.0,0 STARLINK-4301,1 52997U 22076M   22330.67047957  .00002089  00000-0  14924-3 0  9996,2 52997  53.2175  76.7194 0002040  47.9509 312.1656 15.08853141 22308,6917.84,95.437,541.116,538.294,0.0
52997.0,STARLINK-4301,PAYLOAD,2022-11-27 06:23:57,15.08848034,0.0002102,53.2172,74.0431,46.4858,313.6308,5.2633e-06,-2.04e-06,0.0,0 STARLINK-4301,1 52997U 22076M   22331.26664276 -.00000204  00000-0  52633-5 0  9990,2 52997  53.2172  74.0431 0002102  46.4858 313.6308 15.08848034 22394,6917.856,95.437,541.175,538.2669999999998,0.0
52997.0,STARLINK-4301,PAYLOAD,2022-11-27 17:31:40,15.08841697,0.0001911,53.2181,71.9628,46.6628,313.4523,-0.00010618,-1.978e-05,0.0,0 STARLINK-4301,1 52997U 22076M   22331.73032711 -.00001978  00000-0 -10618-3 0  9990,2 52997  53.2181  71.9628 0001911  46.6628 313.4523 15.08841697 22465,6917.875,95.437,541.062,538.418,0.0
52997.0,STARLINK-4301,PAYLOAD,2022-11-28 06:14:44,15.08845722,0.0002005,53.2172,69.5817,42.4215,317.6932,-6.1552e-05,-1.268e-05,0.0,0 STARLINK-4301,1 52997U 22076M   22332.26024104 -.00001268  00000-0 -61552-4 0  9992,2 52997  53.2172  69.5817 0002005  42.4215 317.6932 15.08845722 22541,6917.863,95.437,541.115,538.341,0.0
52997.0,STARLINK-4301,PAYLOAD,2022-11-28 11:00:53,15.08849787,0.0002033,53.2172,68.69,43.5144,316.6008,-2.606e-05,-7.03e-06,0.0,0 STARLINK-4301,1 52997U 22076M   22332.45895637 -.00000703  00000-0 -26060-4 0  9998,2 52997  53.2172  68.6900 0002033  43.5144 316.6008 15.08849787 22108,6917.85,95.437,541.122,538.309,0.0
52997.0,STARLINK-4301,PAYLOAD,2022-11-28 23:43:59,15.08838226,0.0002277,53.2178,66.3111,42.354,317.7628,-4.5008e-05,-1.005e-05,0.0,0 STARLINK-4301,1 52997U 22076M   22332.98888310 -.00001005  00000-0 -45008-4 0  9995,2 52997  53.2178  66.3111 0002277  42.3540 317.7628 15.08838226 22656,6917.886,95.438,541.326,538.1759999999998,0.0
52997.0,STARLINK-4301,PAYLOAD,2022-11-29 12:27:03,15.088443300000002,0.0001781,53.2175,63.9311,51.6535,308.4617,3.5334000000000004e-05,2.74e-06,0.0,0 STARLINK-4301,1 52997U 22076M   22333.51879505  .00000274  00000-0  35334-4 0  9997,2 52997  53.2175  63.9311 0001781  51.6535 308.4617 15.08844330 22269,6917.8669999999975,95.437,540.964,538.5,0.0
52997.0,STARLINK-4301,PAYLOAD,2022-11-29 18:48:36,15.08843658,0.0001839,53.2171,62.7434,44.1079,316.006,-4.0815e-05,-9.38e-06,0.0,0 STARLINK-4301,1 52997U 22076M   22333.78375772 -.00000938  00000-0 -40815-4 0  9992,2 52997  53.2171  62.7434 0001839  44.1079 316.0060 15.08843658 22306,6917.869000000002,95.437,541.006,538.462,0.0
52997.0,STARLINK-4301,PAYLOAD,2022-11-30 12:17:52,15.08832669,0.0002213,53.2166,59.4714,47.0959,313.0219,-3.929e-05,-9.13e-06,0.0,0 STARLINK-4301,1 52997U 22076M   22334.51240954 -.00000913  00000-0 -39290-4 0  9995,2 52997  53.2166  59.4714 0002213  47.0959 313.0219 15.08832669 22415,6917.903,95.438,541.299,538.237,0.0
52997.0,STARLINK-4301,PAYLOAD,2022-11-30 17:04:01,15.08832933,0.0002336,53.2171,58.5795,41.6788,318.4381,-7.2478e-05,-1.441e-05,0.0,0 STARLINK-4301,1 52997U 22076M   22334.71113169 -.00001441  00000-0 -72478-4 0  9996,2 52997  53.2171  58.5795 0002336  41.6788 318.4381 15.08832933 22914,6917.901999999999,95.438,541.383,538.151,0.0
52997.0,STARLINK-4301,PAYLOAD,2022-12-01 12:08:38,15.08844924,0.0001968,53.2177,55.0111,39.6631,320.4505,6.7525e-05,7.87e-06,0.0,0 STARLINK-4301,1 52997U 22076M   22335.50599952  .00000787  00000-0  67525-4 0  9999,2 52997  53.2177  55.0111 0001968  39.6631 320.4505 15.08844924 22563,6917.865,95.437,541.092,538.369,0.0
52997.0,STARLINK-4301,PAYLOAD,2022-12-01 16:54:47,15.08845342,0.0001941,53.2182,54.1181,37.7531,322.3598,1.107e-07,-2.86e-06,0.0,0 STARLINK-4301,1 52997U 22076M   22335.70472135 -.00000286  00000-0  11070-6 0  9995,2 52997  53.2182  54.1181 0001941  37.7531 322.3598 15.08845342 23069,6917.864000000001,95.437,541.072,538.386,0.0
